0 OPS 7613 (P/L 6)
1 04295U 69082G   13282.12390046  .00000045  00000-0  72615-4 0  5143
2 04295 070.0121 277.2527 0018421 053.7829 351.7241 13.94959245239519
0 OPS 7613 (P/L 6)
1 04295U 69082G   13283.12869155  .00000026  00000-0  58318-4 0  5150
2 04295 070.0121 275.1096 0018463 052.3222 357.7901 13.94959569239658
0 OPS 7613 (P/L 6)
1 04295U 69082G   13284.13246172  .00000006  00000-0  43352-4 0  5161
2 04295 070.0121 272.9685 0018530 050.8461 358.7457 13.94959854239799
0 OPS 7613 (P/L 6)
1 04295U 69082G   13285.44617738 -.00000013  00000-0  29533-4 0  5171
2 04295 070.0123 270.1663 0018576 048.9721 116.1990 13.94960118239977
0 OPS 7613 (P/L 6)
1 04295U 69082G   13286.51646580  .00000003  00000-0  41230-4 0  5184
2 04295 070.0124 267.8834 0018637 047.4497 091.1643 13.94960272240120
0 OPS 7613 (P/L 6)
1 04295U 69082G   13288.15394836  .00000025  00000-0  57683-4 0  5194
2 04295 070.0127 264.3906 0018709 045.1545 034.5341 13.94960532240354
0 OPS 7613 (P/L 6)
1 04295U 69082G   13289.45719454  .00000012  00000-0  47722-4 0  5206
2 04295 070.0129 261.6108 0018801 043.3073 099.4021 13.94960764240531
0 OPS 7613 (P/L 6)
1 04295U 69082G   13290.46222934  .00000025  00000-0  57366-4 0  5211
2 04295 070.0131 259.4671 0018855 041.8707 106.6730 13.94960785240676
0 OPS 7613 (P/L 6)
1 04295U 69082G   13291.46398508  .00000037  00000-0  66552-4 0  5224
2 04295 070.0132 257.3305 0018910 040.5059 097.4107 13.94960778240819
0 OPS 7613 (P/L 6)
1 04295U 69082G   13293.17076632  .00000068  00000-0  89840-4 0  5235
2 04295 070.0133 253.6904 0018996 038.1457 028.7679 13.94960871241055
0 OPS 7613 (P/L 6)
1 04295U 69082G   13294.18391602  .00000061  00000-0  84691-4 0  5247
2 04295 070.0133 251.5296 0019047 036.7044 076.7863 13.94961189241196
0 OPS 7613 (P/L 6)
1 04295U 69082G   13295.33187742  .00000042  00000-0  70110-4 0  5254
2 04295 070.0134 249.0814 0019130 035.1084 081.7886 13.94961551241357
